IRIDIUM 65 [+]          
1 25288U 98021D   16007.55014479  .00000271  00000-0  89800-4 0  9993
2 25288  86.3968  84.0388 0001991  98.5090 261.6332 14.34224789929534
IRIDIUM 66 [+]          
1 25289U 98021E   16007.35694334  .00000280  00000-0  92864-4 0  9990
2 25289  86.3967  84.0273 0002050  96.6872 313.8476 14.34214232929497
IRIDIUM 67 [+]          
1 25290U 98021F   16007.28374061  .00000251  00000-0  82609-4 0  9990
2 25290  86.3968  84.1864 0002143  97.3136 262.8303 14.34226304929508
IRIDIUM 68 [+]          
1 25291U 98021G   16007.35987141  .00000244  00000-0  80159-4 0  9998
2 25291  86.3971  84.2635 0002052  94.2653 265.8778 14.34214132929481
IRIDIUM 69 [-]          
1 25319U 98026A   16007.38127730  .00000189  00000-0  55378-4 0  9990
2 25319  86.4013 107.3583 0002316 148.0684 278.1684 14.38535002927302
IRIDIUM 71 [-]          
1 25320U 98026B   16007.38014660  .00000156  00000-0  44016-4 0  9990
2 25320  86.3994 103.5041 0000120 105.0500 297.8201 14.38963225927719
IRIDIUM 70 [+]          
1 25342U 98032A   16007.32372288  .00000243  00000-0  79646-4 0  9992
2 25342  86.3973  84.4953 0001979  95.7973 306.9516 14.34214492923584
IRIDIUM 72 [+]          
1 25343U 98032B   16007.31578272  .00000257  00000-0  84757-4 0  9997
2 25343  86.3968  84.1449 0002090  96.9973 330.3083 14.34226575923589
IRIDIUM 73 [-]          
1 25344U 98032C   16007.60031498  .00000232  00000-0  55919-4 0  9995
2 25344  86.4418  65.4822 0002609  79.2444  82.9666 14.48872894931303
IRIDIUM 74 [S]          
1 25345U 98032D   16007.32345951  .00000304  00000-0  85070-4 0  9998
2 25345  86.4480  84.4704 0002239 101.5580 326.3839 14.42951773926772
IRIDIUM 75 [+]          
1 25346U 98032E   16007.32247249  .00000249  00000-0  81983-4 0  9997
2 25346  86.3972  84.3757 0002113  96.6367 332.3872 14.34225084924157
IRIDIUM 3 [+]           
1 25431U 98048A   16007.44316361  .00000264  00000-0  87033-4 0  9993
2 25431  86.3989 115.9271 0001924  97.1082 314.9545 14.34217818910111
IRIDIUM 76 [+]          
1 25432U 98048B   16007.39501189  .00000241  00000-0  78921-4 0  9993
2 25432  86.3987 115.7186 0002078  93.0984 332.3322 14.34218068910092
IRIDIUM 82 [+]          
1 25467U 98051A   16007.56096068  .00000248  00000-0  81376-4 0  9994
2 25467  86.3975 242.2174 0001889  95.2692 264.8719 14.34218761911134
IRIDIUM 81 [+]          
1 25468U 98051B   16007.20576299  .00000209  00000-0  67481-4 0  9993
2 25468  86.3961 242.0135 0002112  89.0070 271.1368 14.34219273907300
IRIDIUM 80 [+]          
1 25469U 98051C   16007.28305897  .00000196  00000-0  62877-4 0  9995
2 25469  86.3964 242.2442 0002141  86.1628  50.9704 14.34216942907314
IRIDIUM 77 [+]          
1 25471U 98051E   16007.28941190  .00000191  00000-0  61286-4 0  9998
2 25471  86.3954 241.8639 0001940  83.0430  54.2158 14.34220307912510
IRIDIUM 2 [-]           
1 25527U 98066A   16007.54090328  .00003299  00000-0  17834-3 0  9994
2 25527  85.5314 342.6185 0008127 210.2772 288.0432 15.14288029938116
IRIDIUM 86 [+]          
1 25528U 98066B   16007.50039850  .00000001  00000-0 -68237-5 0  9998
2 25528  86.3952 209.9653 0001679  82.1695 277.9691 14.34219519903872
IRIDIUM 84 [+]          
1 25530U 98066D   16007.53210752  .00000010  00000-0 -35310-5 0  9992
2 25530  86.3954 210.1079 0001941  85.5593 274.5824 14.34219471901516
IRIDIUM 83 [+]          
1 25531U 98066E   16007.56381089  .00000036  00000-0  58349-5 0  9992
2 25531  86.3955 210.1985 0002033  88.7586 271.3843 14.34217625898873
IRIDIUM 20 [+]          
1 25577U 98074A   16007.41406875  .00000258  00000-0  84980-4 0  9991
2 25577  86.3985 115.6395 0002036  98.0740 262.0687 14.34218095892935
IRIDIUM 11 [+]          
1 25578U 98074B   16007.51449606  .00000263  00000-0  86743-4 0  9997
2 25578  86.3984 115.8042 0002008 102.1267 350.7589 14.34218159901912
IRIDIUM 14 [S]          
1 25777U 99032A   16007.56334480  .00000263  00000-0  86849-4 0  9998
2 25777  86.3969  84.1138 0001985  96.5525  37.1789 14.34225602879199
IRIDIUM 21 [+]          
1 25778U 99032B   16007.50576049  .00000258  00000-0  85017-4 0  9992
2 25778  86.3969  84.1626 0002226  94.4729 265.6721 14.34222495872626
IRIDIUM 91 [+]          
1 27372U 02005A   16007.48766322  .00000174  00000-0  55070-4 0  9993
2 27372  86.4000 147.9629 0002134 102.5442 325.1789 14.34215202736136
IRIDIUM 90 [S]          
1 27373U 02005B   16007.50368517  .00000037  00000-0  51119-5 0  9990
2 27373  86.4465 210.1868 0001918  79.5303 280.6113 14.42943489735407
IRIDIUM 94 [S]          
1 27374U 02005C   16007.45473509  .00000262  00000-0  86321-4 0  9995
2 27374  86.3984 115.9489 0001869  64.8305 341.5214 14.34218339740458
IRIDIUM 95 [+]          
1 27375U 02005D   16007.51261242  .00000099  00000-0  28221-4 0  9995
2 27375  86.4000 147.7364 0002009  92.5862 267.5564 14.34214902735425
IRIDIUM 96 [S]          
1 27376U 02005E   16007.49063040  .00000016  00000-0 -13978-5 0  9993
2 27376  86.4003 179.1905 0003363  73.6322 286.5244 14.34219804740624
IRIDIUM 97 [+]          
1 27450U 02031A   16007.52867352  .00000022  00000-0  85684-6 0  9997
2 27450  86.3968 179.0451 0002126  97.4947 262.6491 14.34219760714748
IRIDIUM 98 [S]          
1 27451U 02031B   16007.59285443  .00000201  00000-0  64572-4 0  9990
2 27451  86.3955 242.3079 0002121  89.8259 303.9573 14.34217990715824
